[{"OBJECT_NAME":"STARLINK-2697","OBJECT_ID":"2021-040AY","EPOCH":"2026-03-10T00:00:02.999808","MEAN_MOTION":15.25807567,"ECCENTRICITY":7.478e-5,"INCLINATION":53.1393,"RA_OF_ASC_NODE":189.5177,"ARG_OF_PERICENTER":109.17,"MEAN_ANOMALY":135.2099,"EPHEMERIS_TYPE":0,"CLASSIFICATION_TYPE":"U","NORAD_CAT_ID":48474,"ELEMENT_SET_NO":999,"REV_AT_EPOCH":574,"BSTAR":0.05619378,"MEAN_MOTION_DOT":0.01604191,"MEAN_MOTION_DDOT":0},{"OBJECT_NAME":"CZ-2C R\/B","OBJECT_ID":"2014-014B","EPOCH":"2026-03-09T23:01:00.862464","MEAN_MOTION":15.34922702,"ECCENTRICITY":0.00700559,"INCLINATION":98.3314,"RA_OF_ASC_NODE":172.135,"ARG_OF_PERICENTER":276.2597,"MEAN_ANOMALY":83.0667,"EPHEMERIS_TYPE":0,"CLASSIFICATION_TYPE":"U","NORAD_CAT_ID":39625,"ELEMENT_SET_NO":999,"REV_AT_EPOCH":65564,"BSTAR":0.0004934259,"MEAN_MOTION_DOT":0.00018031,"MEAN_MOTION_DDOT":0}]
